{
    "links": {
        "self": "http://www.neowsapp.com/rest/v1/neo/3740344?api_key=iIulBulltgU6a56xZRHN4H3l9WmuAYTsLGpBGhQ2"
    },
    "id": "3740344",
    "neo_reference_id": "3740344",
    "name": "(2016 AW192)",
    "designation": "2016 AW192",
    "nasa_jpl_url": "http://ssd.jpl.nasa.gov/sbdb.cgi?sstr=3740344",
    "absolute_magnitude_h": 25.3,
    "estimated_diameter": {
        "kilometers": {
            "estimated_diameter_min": 0.0231502122,
            "estimated_diameter_max": 0.0517654482
        },
        "meters": {
            "estimated_diameter_min": 23.150212221,
            "estimated_diameter_max": 51.7654482198
        },
        "miles": {
            "estimated_diameter_min": 0.0143848705,
            "estimated_diameter_max": 0.0321655483
        },
        "feet": {
            "estimated_diameter_min": 75.9521422633,
            "estimated_diameter_max": 169.8341531374
        }
    },
    "is_potentially_hazardous_asteroid": false,
    "close_approach_data": [
        {
            "close_approach_date": "2016-01-08",
            "close_approach_date_full": "2016-Jan-08 14:06",
            "epoch_date_close_approach": 1452261960000,
            "relative_velocity": {
                "kilometers_per_second": "19.9756483645",
                "kilometers_per_hour": "71912.3341120376",
                "miles_per_hour": "44683.5278264492"
            },
            "miss_distance": {
                "astronomical": "0.0165859042",
                "lunar": "6.4519167338",
                "kilometers": "2481215.940344054",
                "miles": "1541756.0931497852"
            },
            "orbiting_body": "Earth"
        }
    ],
    "orbital_data": {
        "orbit_id": "4",
        "orbit_determination_date": "2017-04-06 08:29:04",
        "first_observation_date": "2016-01-15",
        "last_observation_date": "2016-01-18",
        "data_arc_in_days": 3,
        "observations_used": 16,
        "orbit_uncertainty": "9",
        "minimum_orbit_intersection": ".00811303",
        "jupiter_tisserand_invariant": "3.505",
        "epoch_osculation": "2457403.5",
        "eccentricity": ".6849597739124197",
        "semi_major_axis": "1.999340778226058",
        "inclination": "1.941875340854919",
        "ascending_node_longitude": "310.7595254659212",
        "orbital_period": "1032.591778062755",
        "perihelion_distance": ".6298727707984562",
        "perihelion_argument": "72.72599329293178",
        "aphelion_distance": "3.36880878565366",
        "perihelion_time": "2457350.704615792125",
        "mean_anomaly": "18.406439716664",
        "mean_motion": ".3486372907940403",
        "equinox": "J2000",
        "orbit_class": {
            "orbit_class_type": "APO",
            "orbit_class_description": "Near-Earth asteroid orbits which cross the Earth’s orbit similar to that of 1862 Apollo",
            "orbit_class_range": "a (semi-major axis) > 1.0 AU; q (perihelion) < 1.017 AU"
        }
    },
    "is_sentry_object": false
}